[{"OBJECT_NAME":"HORS 1","OBJECT_ID":"2023-091Y","EPOCH":"2026-03-09T22:53:40.941312","MEAN_MOTION":15.24891371,"ECCENTRICITY":0.00107483,"INCLINATION":97.5184,"RA_OF_ASC_NODE":132.0743,"ARG_OF_PERICENTER":84.6669,"MEAN_ANOMALY":275.5794,"EPHEMERIS_TYPE":0,"CLASSIFICATION_TYPE":"U","NORAD_CAT_ID":57188,"ELEMENT_SET_NO":999,"REV_AT_EPOCH":14918,"BSTAR":0.00046916276,"MEAN_MOTION_DOT":0.00011622,"MEAN_MOTION_DDOT":0},{"OBJECT_NAME":"STARLINK-30213","OBJECT_ID":"2023-113K","EPOCH":"2026-03-09T22:00:01.999584","MEAN_MOTION":15.26744484,"ECCENTRICITY":0.00015615,"INCLINATION":43.0003,"RA_OF_ASC_NODE":14.81,"ARG_OF_PERICENTER":268.161,"MEAN_ANOMALY":300.99,"EPHEMERIS_TYPE":0,"CLASSIFICATION_TYPE":"U","NORAD_CAT_ID":57504,"ELEMENT_SET_NO":999,"REV_AT_EPOCH":578,"BSTAR":0.00027727019,"MEAN_MOTION_DOT":7.186e-5,"MEAN_MOTION_DDOT":0}]
